[
  {
    "OBJECT_NAME": "STARLINK-33591",
    "OBJECT_ID": "25015V",
    "EPOCH": "2025-11-10T23:15:43.778880",
    "MEAN_MOTION": 15.30238855,
    "ECCENTRICITY": 4e-05,
    "INCLINATION": 53.1596,
    "RA_OF_ASC_NODE": 153.9614,
    "ARG_OF_PERICENTER": 35.7412,
    "MEAN_ANOMALY": 324.3615,
    "EPHEMERIS_TYPE": 0,
    "CLASSIFICATION_TYPE": "U",
    "NORAD_CAT_ID": 62777,
    "ELEMENT_SET_NO": 999,
    "REV_AT_EPOCH": 4630,
    "BSTAR": 0.0012106,
    "MEAN_MOTION_DOT": 0.00035712,
    "MEAN_MOTION_DDOT": 0.0,
    "TLE_LINE1": "1 62777U 25015V   25314.96925670  .00035712  00000+0  12106-2 0  9990",
    "TLE_LINE2": "2 62777  53.1596 153.9614 0000400  35.7412 324.3615 15.30238855 46302",
    "COMMENT": "Grouped by shell and plane from TLE"
  },
  {
    "OBJECT_NAME": "STARLINK-33573",
    "OBJECT_ID": "25015W",
    "EPOCH": "2025-11-11T06:23:26.970432",
    "MEAN_MOTION": 15.30229695,
    "ECCENTRICITY": 0.0001296,
    "INCLINATION": 53.1564,
    "RA_OF_ASC_NODE": 152.2577,
    "ARG_OF_PERICENTER": 88.6072,
    "MEAN_ANOMALY": 271.5077,
    "EPHEMERIS_TYPE": 0,
    "CLASSIFICATION_TYPE": "U",
    "NORAD_CAT_ID": 62778,
    "ELEMENT_SET_NO": 999,
    "REV_AT_EPOCH": 4635,
    "BSTAR": 0.0011951000000000002,
    "MEAN_MOTION_DOT": 0.00035236,
    "MEAN_MOTION_DDOT": 0.0,
    "TLE_LINE1": "1 62778U 25015W   25315.26628438  .00035236  00000+0  11951-2 0  9995",
    "TLE_LINE2": "2 62778  53.1564 152.2577 0001296  88.6072 271.5077 15.30229695 46353",
    "COMMENT": "Grouped by shell and plane from TLE"
  },
  {
    "OBJECT_NAME": "STARLINK-33568",
    "OBJECT_ID": "25015X",
    "EPOCH": "2025-11-11T06:56:53.137824",
    "MEAN_MOTION": 15.30208171,
    "ECCENTRICITY": 0.0002066,
    "INCLINATION": 53.1589,
    "RA_OF_ASC_NODE": 152.4051,
    "ARG_OF_PERICENTER": 83.0535,
    "MEAN_ANOMALY": 277.0701,
    "EPHEMERIS_TYPE": 0,
    "CLASSIFICATION_TYPE": "U",
    "NORAD_CAT_ID": 62779,
    "ELEMENT_SET_NO": 999,
    "REV_AT_EPOCH": 4619,
    "BSTAR": 0.0012724,
    "MEAN_MOTION_DOT": 0.00037528,
    "MEAN_MOTION_DDOT": 0.0,
    "TLE_LINE1": "1 62779U 25015X   25315.28950391  .00037528  00000+0  12724-2 0  9999",
    "TLE_LINE2": "2 62779  53.1589 152.4051 0002066  83.0535 277.0701 15.30208171 46192",
    "COMMENT": "Grouped by shell and plane from TLE"
  },
  {
    "OBJECT_NAME": "STARLINK-33593",
    "OBJECT_ID": "25015Y",
    "EPOCH": "2025-11-11T06:29:32.596224",
    "MEAN_MOTION": 15.30221068,
    "ECCENTRICITY": 0.0002162,
    "INCLINATION": 53.1566,
    "RA_OF_ASC_NODE": 152.2837,
    "ARG_OF_PERICENTER": 86.7759,
    "MEAN_ANOMALY": 273.3489,
    "EPHEMERIS_TYPE": 0,
    "CLASSIFICATION_TYPE": "U",
    "NORAD_CAT_ID": 62780,
    "ELEMENT_SET_NO": 999,
    "REV_AT_EPOCH": 4635,
    "BSTAR": 0.0011134,
    "MEAN_MOTION_DOT": 0.00032783,
    "MEAN_MOTION_DDOT": 0.0,
    "TLE_LINE1": "1 62780U 25015Y   25315.27051616  .00032783  00000+0  11134-2 0  9994",
    "TLE_LINE2": "2 62780  53.1566 152.2837 0002162  86.7759 273.3489 15.30221068 46354",
    "COMMENT": "Grouped by shell and plane from TLE"
  },
  {
    "OBJECT_NAME": "STARLINK-33588",
    "OBJECT_ID": "25015Z",
    "EPOCH": "2025-11-10T23:08:52.457856",
    "MEAN_MOTION": 15.30243789,
    "ECCENTRICITY": 2.07e-05,
    "INCLINATION": 53.1607,
    "RA_OF_ASC_NODE": 151.7391,
    "ARG_OF_PERICENTER": 35.7509,
    "MEAN_ANOMALY": 324.3505,
    "EPHEMERIS_TYPE": 0,
    "CLASSIFICATION_TYPE": "U",
    "NORAD_CAT_ID": 62781,
    "ELEMENT_SET_NO": 999,
    "REV_AT_EPOCH": 4633,
    "BSTAR": 0.0015897,
    "MEAN_MOTION_DOT": 0.00047085,
    "MEAN_MOTION_DDOT": 0.0,
    "TLE_LINE1": "1 62781U 25015Z   25314.96449604  .00047085  00000+0  15897-2 0  9999",
    "TLE_LINE2": "2 62781  53.1607 151.7391 0000207  35.7509 324.3505 15.30243789 46333",
    "COMMENT": "Grouped by shell and plane from TLE"
  },
  {
    "OBJECT_NAME": "STARLINK-33585",
    "OBJECT_ID": "25015AA",
    "EPOCH": "2025-11-11T06:09:45.926784",
    "MEAN_MOTION": 15.30215993,
    "ECCENTRICITY": 3e-05,
    "INCLINATION": 53.1553,
    "RA_OF_ASC_NODE": 152.2,
    "ARG_OF_PERICENTER": 83.8677,
    "MEAN_ANOMALY": 276.2358,
    "EPHEMERIS_TYPE": 0,
    "CLASSIFICATION_TYPE": "U",
    "NORAD_CAT_ID": 62782,
    "ELEMENT_SET_NO": 999,
    "REV_AT_EPOCH": 4607,
    "BSTAR": 0.00074088,
    "MEAN_MOTION_DOT": 0.00021659,
    "MEAN_MOTION_DDOT": 0.0,
    "TLE_LINE1": "1 62782U 25015AA  25315.25678156  .00021659  00000+0  74088-3 0  9996",
    "TLE_LINE2": "2 62782  53.1553 152.2000 0000300  83.8677 276.2358 15.30215993 46079",
    "COMMENT": "Grouped by shell and plane from TLE"
  },
  {
    "OBJECT_NAME": "STARLINK-33582",
    "OBJECT_ID": "25015AB",
    "EPOCH": "2025-11-11T06:43:11.999136",
    "MEAN_MOTION": 15.30226954,
    "ECCENTRICITY": 3.9e-05,
    "INCLINATION": 53.1596,
    "RA_OF_ASC_NODE": 152.3426,
    "ARG_OF_PERICENTER": 74.7039,
    "MEAN_ANOMALY": 285.4004,
    "EPHEMERIS_TYPE": 0,
    "CLASSIFICATION_TYPE": "U",
    "NORAD_CAT_ID": 62783,
    "ELEMENT_SET_NO": 999,
    "REV_AT_EPOCH": 4628,
    "BSTAR": 0.0011714,
    "MEAN_MOTION_DOT": 0.00034525,
    "MEAN_MOTION_DDOT": 0.0,
    "TLE_LINE1": "1 62783U 25015AB  25315.27999999  .00034525  00000+0  11714-2 0  9992",
    "TLE_LINE2": "2 62783  53.1596 152.3426 0000390  74.7039 285.4004 15.30226954 46282",
    "COMMENT": "Grouped by shell and plane from TLE"
  },
  {
    "OBJECT_NAME": "STARLINK-33581",
    "OBJECT_ID": "25015AC",
    "EPOCH": "2025-11-11T05:53:14.354592",
    "MEAN_MOTION": 15.30243218,
    "ECCENTRICITY": 0.0001647,
    "INCLINATION": 53.1585,
    "RA_OF_ASC_NODE": 152.8349,
    "ARG_OF_PERICENTER": 86.7094,
    "MEAN_ANOMALY": 273.4095,
    "EPHEMERIS_TYPE": 0,
    "CLASSIFICATION_TYPE": "U",
    "NORAD_CAT_ID": 62784,
    "ELEMENT_SET_NO": 999,
    "REV_AT_EPOCH": 4634,
    "BSTAR": 0.0021907,
    "MEAN_MOTION_DOT": 0.00065182,
    "MEAN_MOTION_DDOT": 0.0,
    "TLE_LINE1": "1 62784U 25015AC  25315.24530503  .00065182  00000+0  21907-2 0  9990",
    "TLE_LINE2": "2 62784  53.1585 152.8349 0001647  86.7094 273.4095 15.30243218 46346",
    "COMMENT": "Grouped by shell and plane from TLE"
  },
  {
    "OBJECT_NAME": "STARLINK-34201",
    "OBJECT_ID": "25107P",
    "EPOCH": "2025-11-10T22:11:40.129728",
    "MEAN_MOTION": 15.27611748,
    "ECCENTRICITY": 0.0001489,
    "INCLINATION": 43.0011,
    "RA_OF_ASC_NODE": 152.5542,
    "ARG_OF_PERICENTER": 264.4899,
    "MEAN_ANOMALY": 95.5783,
    "EPHEMERIS_TYPE": 0,
    "CLASSIFICATION_TYPE": "U",
    "NORAD_CAT_ID": 64077,
    "ELEMENT_SET_NO": 999,
    "REV_AT_EPOCH": 2686,
    "BSTAR": 0.0012389,
    "MEAN_MOTION_DOT": 0.00034021,
    "MEAN_MOTION_DDOT": 0.0,
    "TLE_LINE1": "1 64077U 25107P   25314.92477002  .00034021  00000+0  12389-2 0  9999",
    "TLE_LINE2": "2 64077  43.0011 152.5542 0001489 264.4899  95.5783 15.27611748 26864",
    "COMMENT": "Grouped by shell and plane from TLE"
  },
  {
    "OBJECT_NAME": "STARLINK-34190",
    "OBJECT_ID": "25107Q",
    "EPOCH": "2025-11-10T23:08:48.970752",
    "MEAN_MOTION": 15.27617197,
    "ECCENTRICITY": 0.0001929,
    "INCLINATION": 43.0015,
    "RA_OF_ASC_NODE": 151.9857,
    "ARG_OF_PERICENTER": 274.5834,
    "MEAN_ANOMALY": 85.4797,
    "EPHEMERIS_TYPE": 0,
    "CLASSIFICATION_TYPE": "U",
    "NORAD_CAT_ID": 64078,
    "ELEMENT_SET_NO": 999,
    "REV_AT_EPOCH": 2796,
    "BSTAR": 0.0013728000000000002,
    "MEAN_MOTION_DOT": 0.00037752,
    "MEAN_MOTION_DDOT": 0.0,
    "TLE_LINE1": "1 64078U 25107Q   25314.96445568  .00037752  00000+0  13728-2 0  9998",
    "TLE_LINE2": "2 64078  43.0015 151.9857 0001929 274.5834  85.4797 15.27617197 27960",
    "COMMENT": "Grouped by shell and plane from TLE"
  },
  {
    "OBJECT_NAME": "STARLINK-34168",
    "OBJECT_ID": "25107R",
    "EPOCH": "2025-11-11T06:33:42.112512",
    "MEAN_MOTION": 15.27598307,
    "ECCENTRICITY": 7.9e-06,
    "INCLINATION": 42.9987,
    "RA_OF_ASC_NODE": 150.005,
    "ARG_OF_PERICENTER": 265.3526,
    "MEAN_ANOMALY": 94.7316,
    "EPHEMERIS_TYPE": 0,
    "CLASSIFICATION_TYPE": "U",
    "NORAD_CAT_ID": 64079,
    "ELEMENT_SET_NO": 999,
    "REV_AT_EPOCH": 2801,
    "BSTAR": 0.0012565000000000002,
    "MEAN_MOTION_DOT": 0.00034497,
    "MEAN_MOTION_DDOT": 0.0,
    "TLE_LINE1": "1 64079U 25107R   25315.27340408  .00034497  00000+0  12565-2 0  9992",
    "TLE_LINE2": "2 64079  42.9987 150.0050 0000079 265.3526  94.7316 15.27598307 28011",
    "COMMENT": "Grouped by shell and plane from TLE"
  },
  {
    "OBJECT_NAME": "STARLINK-34098",
    "OBJECT_ID": "25107S",
    "EPOCH": "2025-11-10T19:45:42.263712",
    "MEAN_MOTION": 15.27593317,
    "ECCENTRICITY": 0.0001271,
    "INCLINATION": 42.9946,
    "RA_OF_ASC_NODE": 152.6372,
    "ARG_OF_PERICENTER": 258.7184,
    "MEAN_ANOMALY": 101.3525,
    "EPHEMERIS_TYPE": 0,
    "CLASSIFICATION_TYPE": "U",
    "NORAD_CAT_ID": 64080,
    "ELEMENT_SET_NO": 999,
    "REV_AT_EPOCH": 2794,
    "BSTAR": 0.0013206000000000001,
    "MEAN_MOTION_DOT": 0.00036271,
    "MEAN_MOTION_DDOT": 0.0,
    "TLE_LINE1": "1 64080U 25107S   25314.82340583  .00036271  00000+0  13206-2 0  9993",
    "TLE_LINE2": "2 64080  42.9946 152.6372 0001271 258.7184 101.3525 15.27593317 27948",
    "COMMENT": "Grouped by shell and plane from TLE"
  },
  {
    "OBJECT_NAME": "STARLINK-34180",
    "OBJECT_ID": "25107T",
    "EPOCH": "2025-11-11T05:42:05.660064",
    "MEAN_MOTION": 15.27613674,
    "ECCENTRICITY": 0.0001349,
    "INCLINATION": 42.9979,
    "RA_OF_ASC_NODE": 150.5963,
    "ARG_OF_PERICENTER": 268.4103,
    "MEAN_ANOMALY": 91.6594,
    "EPHEMERIS_TYPE": 0,
    "CLASSIFICATION_TYPE": "U",
    "NORAD_CAT_ID": 64081,
    "ELEMENT_SET_NO": 999,
    "REV_AT_EPOCH": 2800,
    "BSTAR": 0.0011699,
    "MEAN_MOTION_DOT": 0.00032105,
    "MEAN_MOTION_DDOT": 0.0,
    "TLE_LINE1": "1 64081U 25107T   25315.23756551  .00032105  00000+0  11699-2 0  9992",
    "TLE_LINE2": "2 64081  42.9979 150.5963 0001349 268.4103  91.6594 15.27613674 28007",
    "COMMENT": "Grouped by shell and plane from TLE"
  }
]